[{"OBJECT_NAME":"STARLINK-3344","OBJECT_ID":"2022-005G","EPOCH":"2026-03-09T19:57:23.794560","MEAN_MOTION":15.08837664,"ECCENTRICITY":0.00014357,"INCLINATION":53.2182,"RA_OF_ASC_NODE":288.4637,"ARG_OF_PERICENTER":91.5574,"MEAN_ANOMALY":268.5583,"EPHEMERIS_TYPE":0,"CLASSIFICATION_TYPE":"U","NORAD_CAT_ID":51110,"ELEMENT_SET_NO":999,"REV_AT_EPOCH":22890,"BSTAR":-1.5577853e-5,"MEAN_MOTION_DOT":-5.36e-6,"MEAN_MOTION_DDOT":0},{"OBJECT_NAME":"CZ-2C R\/B","OBJECT_ID":"2026-009B","EPOCH":"2026-03-09T17:37:38.663328","MEAN_MOTION":15.03346126,"ECCENTRICITY":0.00989033,"INCLINATION":97.1689,"RA_OF_ASC_NODE":139.2821,"ARG_OF_PERICENTER":40.6367,"MEAN_ANOMALY":320.2186,"EPHEMERIS_TYPE":0,"CLASSIFICATION_TYPE":"U","NORAD_CAT_ID":67475,"ELEMENT_SET_NO":999,"REV_AT_EPOCH":808,"BSTAR":0.00028478769,"MEAN_MOTION_DOT":4.245e-5,"MEAN_MOTION_DDOT":0}]
